{
  "links" : {
    "next" : "https://api.nasa.gov/neo/rest/v1/feed?start_date=2005-04-09&end_date=2005-04-09&detailed=true&api_key=t0TVs3DtDT2H8Oy2Zy8m2eVrNsAVKAexjcZXUckd",
    "prev" : "https://api.nasa.gov/neo/rest/v1/feed?start_date=2005-04-07&end_date=2005-04-07&detailed=true&api_key=t0TVs3DtDT2H8Oy2Zy8m2eVrNsAVKAexjcZXUckd",
    "self" : "https://api.nasa.gov/neo/rest/v1/feed?start_date=2005-04-08&end_date=2005-04-08&detailed=true&api_key=t0TVs3DtDT2H8Oy2Zy8m2eVrNsAVKAexjcZXUckd"
  },
  "element_count" : 3,
  "near_earth_objects" : {
    "2005-04-08" : [ {
      "links" : {
        "self" : "https://api.nasa.gov/neo/rest/v1/neo/3276443?api_key=t0TVs3DtDT2H8Oy2Zy8m2eVrNsAVKAexjcZXUckd"
      },
      "neo_reference_id" : "3276443",
      "name" : "(2005 GX110)",
      "nasa_jpl_url" : "http://ssd.jpl.nasa.gov/sbdb.cgi?sstr=3276443",
      "absolute_magnitude_h" : 24.129,
      "estimated_diameter" : {
        "kilometers" : {
          "estimated_diameter_min" : 0.0396967522,
          "estimated_diameter_max" : 0.0887646365
        },
        "meters" : {
          "estimated_diameter_min" : 39.6967522279,
          "estimated_diameter_max" : 88.7646364675
        },
        "miles" : {
          "estimated_diameter_min" : 0.0246664106,
          "estimated_diameter_max" : 0.0551557709
        },
        "feet" : {
          "estimated_diameter_min" : 130.2386925793,
          "estimated_diameter_max" : 291.222569908
        }
      },
      "is_potentially_hazardous_asteroid" : false,
      "close_approach_data" : [ {
        "close_approach_date" : "2005-04-08",
        "epoch_date_close_approach" : 1112943600000,
        "relative_velocity" : {
          "kilometers_per_second" : "11.7837022665",
          "kilometers_per_hour" : "42421.3281595667",
          "miles_per_hour" : "26358.9636000374"
        },
        "miss_distance" : {
          "astronomical" : "0.1204486972",
          "lunar" : "46.8545417786",
          "kilometers" : "18018868",
          "miles" : "11196406"
        },
        "orbiting_body" : "Earth"
      } ],
      "orbital_data" : {
        "orbit_id" : "9",
        "orbit_determination_date" : "2017-04-06 09:11:05",
        "orbit_uncertainty" : "9",
        "minimum_orbit_intersection" : ".114722",
        "jupiter_tisserand_invariant" : "4.247",
        "epoch_osculation" : "2453471.5",
        "eccentricity" : ".3144032042933336",
        "semi_major_axis" : "1.591159995777036",
        "inclination" : "21.42631244579152",
        "ascending_node_longitude" : "23.01602177961751",
        "orbital_period" : "733.110102042371",
        "perihelion_distance" : "1.090894194561369",
        "perihelion_argument" : "152.4029817361316",
        "aphelion_distance" : "2.091425796992704",
        "perihelion_time" : "2453443.515380318173",
        "mean_anomaly" : "13.74208738549814",
        "mean_motion" : ".4910585722350247",
        "equinox" : "J2000"
      }
    }, {
      "links" : {
        "self" : "https://api.nasa.gov/neo/rest/v1/neo/2307918?api_key=t0TVs3DtDT2H8Oy2Zy8m2eVrNsAVKAexjcZXUckd"
      },
      "neo_reference_id" : "2307918",
      "name" : "307918 (2004 EU9)",
      "nasa_jpl_url" : "http://ssd.jpl.nasa.gov/sbdb.cgi?sstr=2307918",
      "absolute_magnitude_h" : 18.9,
      "estimated_diameter" : {
        "kilometers" : {
          "estimated_diameter_min" : 0.4411182,
          "estimated_diameter_max" : 0.9863702813
        },
        "meters" : {
          "estimated_diameter_min" : 441.1181999969,
          "estimated_diameter_max" : 986.3702813054
        },
        "miles" : {
          "estimated_diameter_min" : 0.2740980571,
          "estimated_diameter_max" : 0.6129018881
        },
        "feet" : {
          "estimated_diameter_min" : 1447.2382352778,
          "estimated_diameter_max" : 3236.1230737181
        }
      },
      "is_potentially_hazardous_asteroid" : false,
      "close_approach_data" : [ {
        "close_approach_date" : "2005-04-08",
        "epoch_date_close_approach" : 1112943600000,
        "relative_velocity" : {
          "kilometers_per_second" : "15.8484276568",
          "kilometers_per_hour" : "57054.3395645646",
          "miles_per_hour" : "35451.3478255485"
        },
        "miss_distance" : {
          "astronomical" : "0.4413234257",
          "lunar" : "171.6748199463",
          "kilometers" : "66021044",
          "miles" : "41023576"
        },
        "orbiting_body" : "Earth"
      } ],
      "orbital_data" : {
        "orbit_id" : "68",
        "orbit_determination_date" : "2017-04-06 09:23:59",
        "orbit_uncertainty" : "0",
        "minimum_orbit_intersection" : ".16863",
        "jupiter_tisserand_invariant" : "6.534",
        "epoch_osculation" : "2458000.5",
        "eccentricity" : ".5053015262502338",
        "semi_major_axis" : ".8804148130852401",
        "inclination" : "28.58532296576249",
        "ascending_node_longitude" : "161.1057118127949",
        "orbital_period" : "301.7376046546292",
        "perihelion_distance" : ".4355398642999539",
        "perihelion_argument" : "202.4088884278374",
        "aphelion_distance" : "1.325289761870526",
        "perihelion_time" : "2458104.143835426860",
        "mean_anomaly" : "236.3436171756681",
        "mean_motion" : "1.193089606487923",
        "equinox" : "J2000"
      }
    }, {
      "links" : {
        "self" : "https://api.nasa.gov/neo/rest/v1/neo/3621604?api_key=t0TVs3DtDT2H8Oy2Zy8m2eVrNsAVKAexjcZXUckd"
      },
      "neo_reference_id" : "3621604",
      "name" : "(2012 YK)",
      "nasa_jpl_url" : "http://ssd.jpl.nasa.gov/sbdb.cgi?sstr=3621604",
      "absolute_magnitude_h" : 23.0,
      "estimated_diameter" : {
        "kilometers" : {
          "estimated_diameter_min" : 0.0667659413,
          "estimated_diameter_max" : 0.1492931834
        },
        "meters" : {
          "estimated_diameter_min" : 66.7659413495,
          "estimated_diameter_max" : 149.2931834393
        },
        "miles" : {
          "estimated_diameter_min" : 0.0414864197,
          "estimated_diameter_max" : 0.0927664547
        },
        "feet" : {
          "estimated_diameter_min" : 219.0483710172,
          "estimated_diameter_max" : 489.807047955
        }
      },
      "is_potentially_hazardous_asteroid" : false,
      "close_approach_data" : [ {
        "close_approach_date" : "2005-04-08",
        "epoch_date_close_approach" : 1112943600000,
        "relative_velocity" : {
          "kilometers_per_second" : "15.6091648302",
          "kilometers_per_hour" : "56192.9933887258",
          "miles_per_hour" : "34916.140808678"
        },
        "miss_distance" : {
          "astronomical" : "0.4863685118",
          "lunar" : "189.1973419189",
          "kilometers" : "72759696",
          "miles" : "45210776"
        },
        "orbiting_body" : "Earth"
      } ],
      "orbital_data" : {
        "orbit_id" : "29",
        "orbit_determination_date" : "2017-04-06 08:47:33",
        "orbit_uncertainty" : "0",
        "minimum_orbit_intersection" : ".0338425",
        "jupiter_tisserand_invariant" : "7.546",
        "epoch_osculation" : "2458000.5",
        "eccentricity" : ".3838117917906527",
        "semi_major_axis" : ".7591374576615511",
        "inclination" : "11.27000633542522",
        "ascending_node_longitude" : "88.66996283068063",
        "orbital_period" : "241.5900582345487",
        "perihelion_distance" : ".4677715498210704",
        "perihelion_argument" : "165.4236141742222",
        "aphelion_distance" : "1.050503365502032",
        "perihelion_time" : "2458080.376978746178",
        "mean_anomaly" : "240.9731138824156",
        "mean_motion" : "1.490127543454179",
        "equinox" : "J2000"
      }
    } ]
  }
}